[{"OBJECT_NAME":"OBJECT F","OBJECT_ID":"2024-092F","EPOCH":"2026-03-09T21:54:46.147104","MEAN_MOTION":15.3361444,"ECCENTRICITY":0.00086458,"INCLINATION":97.6418,"RA_OF_ASC_NODE":198.4543,"ARG_OF_PERICENTER":142.6506,"MEAN_ANOMALY":217.5339,"EPHEMERIS_TYPE":0,"CLASSIFICATION_TYPE":"U","NORAD_CAT_ID":59778,"ELEMENT_SET_NO":999,"REV_AT_EPOCH":10053,"BSTAR":0.0007914277,"MEAN_MOTION_DOT":0.00025723,"MEAN_MOTION_DDOT":0},{"OBJECT_NAME":"STARLINK-32035","OBJECT_ID":"2024-117S","EPOCH":"2026-03-09T22:15:02.740320","MEAN_MOTION":15.30184213,"ECCENTRICITY":0.00012913,"INCLINATION":53.1612,"RA_OF_ASC_NODE":35.961,"ARG_OF_PERICENTER":81.4176,"MEAN_ANOMALY":278.6971,"EPHEMERIS_TYPE":0,"CLASSIFICATION_TYPE":"U","NORAD_CAT_ID":60107,"ELEMENT_SET_NO":999,"REV_AT_EPOCH":9692,"BSTAR":3.2036753e-5,"MEAN_MOTION_DOT":5.89e-6,"MEAN_MOTION_DDOT":0}]
